{
  "type": "FeatureCollection",
  "features": [
    {
      "type": "Feature",
      "properties": {
        "norad_id": 66577,
        "name": "STARLINK-35815",
        "group": "last-30-days",
        "lat": 18.68822595813851,
        "lon": 135.34037610269078,
        "alt_km": 411.8373477916366,
        "timestamp": "2025-12-13T22:39:28.444110+00:00",
        "meta_object_name": "STARLINK-35815",
        "meta_object_id": "2025-268W",
        "meta_epoch": "2025-12-13T07:04:45.356160",
        "meta_mean_motion": 15.50623229,
        "meta_eccentricity": 0.00018225,
        "meta_inclination": 42.9993,
        "meta_ra_of_asc_node": 117.8543,
        "meta_arg_of_pericenter": 276.5052,
        "meta_mean_anomaly": 83.5601,
        "meta_ephemeris_type": 0,
        "meta_classification_type": "U",
        "meta_norad_cat_id": 66577,
        "meta_element_set_no": 999,
        "meta_rev_at_epoch": 471,
        "meta_bstar": 0.002133231,
        "meta_mean_motion_dot": 0.00127057,
        "meta_mean_motion_ddot": 0,
        "tle_line1": "1 66577U 25268W   25347.29496940  .00127057  00000+0  21332-2 0  9992",
        "tle_line2": "2 66577  42.9993 117.8543 0001822 276.5052  83.5601 15.50623229  4718"
      },
      "geometry": {
        "type": "Point",
        "coordinates": [
          135.34037610269078,
          18.68822595813851
        ]
      }
    },
    {
      "type": "Feature",
      "properties": {
        "norad_id": 66578,
        "name": "STARLINK-35743",
        "group": "last-30-days",
        "lat": 19.977355580595553,
        "lon": 137.01375909471105,
        "alt_km": 411.3373384328179,
        "timestamp": "2025-12-13T22:39:28.444120+00:00",
        "meta_object_name": "STARLINK-35743",
        "meta_object_id": "2025-268X",
        "meta_epoch": "2025-12-13T07:04:15.971520",
        "meta_mean_motion": 15.5064567,
        "meta_eccentricity": 8.455e-05,
        "meta_inclination": 42.9995,
        "meta_ra_of_asc_node": 117.8528,
        "meta_arg_of_pericenter": 255.7967,
        "meta_mean_anomaly": 104.2799,
        "meta_ephemeris_type": 0,
        "meta_classification_type": "U",
        "meta_norad_cat_id": 66578,
        "meta_element_set_no": 999,
        "meta_rev_at_epoch": 471,
        "meta_bstar": 0.0031012837,
        "meta_mean_motion_dot": 0.00186438,
        "meta_mean_motion_ddot": 0,
        "tle_line1": "1 66578U 25268X   25347.29462930  .00186438  00000+0  31013-2 0  9990",
        "tle_line2": "2 66578  42.9995 117.8528 0000845 255.7967 104.2799 15.50645670  4715"
      },
      "geometry": {
        "type": "Point",
        "coordinates": [
          137.01375909471105,
          19.977355580595553
        ]
      }
    },
    {
      "type": "Feature",
      "properties": {
        "norad_id": 66579,
        "name": "STARLINK-35868",
        "group": "last-30-days",
        "lat": 21.1539785336707,
        "lon": 138.58333954155708,
        "alt_km": 411.63780366627725,
        "timestamp": "2025-12-13T22:39:28.444131+00:00",
        "meta_object_name": "STARLINK-35868",
        "meta_object_id": "2025-268Y",
        "meta_epoch": "2025-12-13T02:25:29.980416",
        "meta_mean_motion": 15.5062668,
        "meta_eccentricity": 0.00017706,
        "meta_inclination": 42.9994,
        "meta_ra_of_asc_node": 118.981,
        "meta_arg_of_pericenter": 267.0088,
        "meta_mean_anomaly": 93.0569,
        "meta_ephemeris_type": 0,
        "meta_classification_type": "U",
        "meta_norad_cat_id": 66579,
        "meta_element_set_no": 999,
        "meta_rev_at_epoch": 468,
        "meta_bstar": 0.0016908379,
        "meta_mean_motion_dot": 0.00100303,
        "meta_mean_motion_ddot": 0,
        "tle_line1": "1 66579U 25268Y   25347.10104144  .00100303  00000+0  16908-2 0  9994",
        "tle_line2": "2 66579  42.9994 118.9810 0001770 267.0088  93.0569 15.50626680  4685"
      },
      "geometry": {
        "type": "Point",
        "coordinates": [
          138.58333954155708,
          21.1539785336707
        ]
      }
    },
    {
      "type": "Feature",
      "properties": {
        "norad_id": 66580,
        "name": "STARLINK-35872",
        "group": "last-30-days",
        "lat": 22.33623178135452,
        "lon": 140.2067329425066,
        "alt_km": 411.3200668253421,
        "timestamp": "2025-12-13T22:39:28.444143+00:00",
        "meta_object_name": "STARLINK-35872",
        "meta_object_id": "2025-268Z",
        "meta_epoch": "2025-12-13T02:25:00.396192",
        "meta_mean_motion": 15.5062559,
        "meta_eccentricity": 0.00015242,
        "meta_inclination": 42.9993,
        "meta_ra_of_asc_node": 118.9789,
        "meta_arg_of_pericenter": 271.4232,
        "meta_mean_anomaly": 88.6454,
        "meta_ephemeris_type": 0,
        "meta_classification_type": "U",
        "meta_norad_cat_id": 66580,
        "meta_element_set_no": 999,
        "meta_rev_at_epoch": 468,
        "meta_bstar": 0.0017305178,
        "meta_mean_motion_dot": 0.00102692,
        "meta_mean_motion_ddot": 0,
        "tle_line1": "1 66580U 25268Z   25347.10069903  .00102692  00000+0  17305-2 0  9994",
        "tle_line2": "2 66580  42.9993 118.9789 0001524 271.4232  88.6454 15.50625590  4680"
      },
      "geometry": {
        "type": "Point",
        "coordinates": [
          140.2067329425066,
          22.33623178135452
        ]
      }
    },
    {
      "type": "Feature",
      "properties": {
        "norad_id": 66581,
        "name": "STARLINK-35744",
        "group": "last-30-days",
        "lat": 23.59283835437872,
        "lon": 141.98612689247977,
        "alt_km": 410.826178351208,
        "timestamp": "2025-12-13T22:39:28.444153+00:00",
        "meta_object_name": "STARLINK-35744",
        "meta_object_id": "2025-268AA",
        "meta_epoch": "2025-12-13T02:24:30.678048",
        "meta_mean_motion": 15.50635625,
        "meta_eccentricity": 0.00019396,
        "meta_inclination": 42.9998,
        "meta_ra_of_asc_node": 118.9748,
        "meta_arg_of_pericenter": 281.7444,
        "meta_mean_anomaly": 78.3199,
        "meta_ephemeris_type": 0,
        "meta_classification_type": "U",
        "meta_norad_cat_id": 66581,
        "meta_element_set_no": 999,
        "meta_rev_at_epoch": 468,
        "meta_bstar": 0.0024783298,
        "meta_mean_motion_dot": 0.00148134,
        "meta_mean_motion_ddot": 0,
        "tle_line1": "1 66581U 25268AA  25347.10035507  .00148134  00000+0  24783-2 0  9997",
        "tle_line2": "2 66581  42.9998 118.9748 0001939 281.7444  78.3199 15.50635625  4682"
      },
      "geometry": {
        "type": "Point",
        "coordinates": [
          141.98612689247977,
          23.59283835437872
        ]
      }
    },
    {
      "type": "Feature",
      "properties": {
        "norad_id": 66582,
        "name": "STARLINK-35746",
        "group": "last-30-days",
        "lat": 24.794704060694066,
        "lon": 143.75022672885467,
        "alt_km": 410.4322200258657,
        "timestamp": "2025-12-13T22:39:28.444163+00:00",
        "meta_object_name": "STARLINK-35746",
        "meta_object_id": "2025-268AB",
        "meta_epoch": "2025-12-13T02:24:01.283904",
        "meta_mean_motion": 15.50655473,
        "meta_eccentricity": 0.00012802,
        "meta_inclination": 43.0002,
        "meta_ra_of_asc_node": 118.9719,
        "meta_arg_of_pericenter": 276.6266,
        "meta_mean_anomaly": 83.4449,
        "meta_ephemeris_type": 0,
        "meta_classification_type": "U",
        "meta_norad_cat_id": 66582,
        "meta_element_set_no": 999,
        "meta_rev_at_epoch": 468,
        "meta_bstar": 0.0027974602,
        "meta_mean_motion_dot": 0.00167794,
        "meta_mean_motion_ddot": 0,
        "tle_line1": "1 66582U 25268AB  25347.10001486  .00167794  00000+0  27975-2 0  9996",
        "tle_line2": "2 66582  43.0002 118.9719 0001280 276.6266  83.4449 15.50655473  4681"
      },
      "geometry": {
        "type": "Point",
        "coordinates": [
          143.75022672885467,
          24.794704060694066
        ]
      }
    },
    {
      "type": "Feature",
      "properties": {
        "norad_id": 66583,
        "name": "STARLINK-35941",
        "group": "last-30-days",
        "lat": 25.91434745187036,
        "lon": 145.45533306428,
        "alt_km": 410.1108902178448,
        "timestamp": "2025-12-13T22:39:28.444173+00:00",
        "meta_object_name": "STARLINK-35941",
        "meta_object_id": "2025-268AC",
        "meta_epoch": "2025-12-13T02:23:31.434432",
        "meta_mean_motion": 15.50656869,
        "meta_eccentricity": 0.0001234,
        "meta_inclination": 43,
        "meta_ra_of_asc_node": 118.9697,
        "meta_arg_of_pericenter": 292.7477,
        "meta_mean_anomaly": 67.3252,
        "meta_ephemeris_type": 0,
        "meta_classification_type": "U",
        "meta_norad_cat_id": 66583,
        "meta_element_set_no": 999,
        "meta_rev_at_epoch": 468,
        "meta_bstar": 0.0025889773,
        "meta_mean_motion_dot": 0.00155015,
        "meta_mean_motion_ddot": 0,
        "tle_line1": "1 66583U 25268AC  25347.09966938  .00155015  00000+0  25890-2 0  9994",
        "tle_line2": "2 66583  43.0000 118.9697 0001234 292.7477  67.3252 15.50656869  4680"
      },
      "geometry": {
        "type": "Point",
        "coordinates": [
          145.45533306428,
          25.91434745187036
        ]
      }
    }
  ]
}